IRIDIUM 7               
1 24793U 97020B   25209.56993074  .00000378  00000+0  12349-3 0  9993
2 24793  86.4010 159.5849 0002212  78.5425 281.6020 14.35963112477838
IRIDIUM 5               
1 24795U 97020D   25209.62156111  .00003450  00000+0  28092-3 0  9991
2 24795  86.3850  64.6144 0107779 350.9435   8.9846 14.94652261491654
IRIDIUM 4               
1 24796U 97020E   25209.59705831  .00000404  00000+0  13002-3 0  9998
2 24796  86.4007 156.4270 0002352  83.5903 276.5562 14.36864823478412
IRIDIUM 914             
1 24836U 97030A   25209.41487311  .00000427  00000+0  12701-3 0  9995
2 24836  86.3985 164.9754 0003869  85.2950 274.8691 14.40899743613067
IRIDIUM 16              
1 24841U 97030F   25209.43661794  .00000360  00000+0  11095-3 0  9993
2 24841  86.4062 187.9544 0000861  12.7751 347.3468 14.38737127472936
IRIDIUM 911             
1 24842U 97030G   25209.45111866  .00000551  00000+0  14388-3 0  9996
2 24842  86.4488 186.6745 0012884 328.4680  31.5750 14.47674955481052
IRIDIUM 17              
1 24870U 97034B   25209.51883022  .00000369  00000+0  11590-3 0  9997
2 24870  86.3946 217.3727 0001155 134.3847 225.7446 14.37853277469523
IRIDIUM 920             
1 24871U 97034C   25209.52485215  .00000391  00000+0  11413-3 0  9990
2 24871  86.3991 196.5167 0009834 313.5158  46.5224 14.41560049472533
